AIST-2D (RS-48)         
1 41465U 16026B   23093.44666873  .00031381  00000+0  48580-3 0  9999
2 41465  97.0103 326.2188 0008590 140.8881 344.7440 15.53953985388349
NUSAT-1 (FRESCO)        
1 41557U 16033B   23093.45637912  .00070113  00000+0  12179-2 0  9992
2 41557  97.3828 198.9086 0007072  62.5928   6.8758 15.50567105382013
NUSAT-2 (BATATA)        
1 41558U 16033C   23093.51921473  .00078853  00000+0  12571-2 0  9993
2 41558  97.4091 206.4456 0006228  41.3206  19.6445 15.52948477382347
CARTOSAT-2C             
1 41599U 16040A   23093.48471171  .00008308  00000+0  39637-3 0  9998
2 41599  97.4444 154.8511 0013761 246.2778 239.1381 15.19245383375969
SATHYABAMASAT           
1 41600U 16040B   23093.11559876  .00106004  00000+0  14521-2 0  9996
2 41600  97.1716 145.9816 0008397 157.7977 202.3644 15.56988463377483
LAPAN-A3                
1 41603U 16040E   23093.47496789  .00004756  00000+0  21083-3 0  9994
2 41603  97.1752 122.4819 0011732 213.2024 283.0050 15.22001044376128
BIROS                   
1 41604U 16040F   23093.54397535  .00009251  00000+0  33963-3 0  9997
2 41604  97.1727 131.9447 0011010 175.7118 184.4219 15.28095622376692
SWAYAM                  
1 41607U 16040J   23093.08226460  .00076283  00000+0  12499-2 0  9996
2 41607  97.1667 143.2867 0008819 152.4493 207.7229 15.52171815377306
BEESAT-4                
1 41619U 16040W   23093.37644685  .00077471  00000+0  14336-2 0  9996
2 41619  97.1699 142.9148 0008020 148.0657 212.1082 15.48724621365251
3CAT-2                  
1 41732U 16051B   23093.35118559  .00054592  00000+0  10847-2 0  9990
2 41732  97.3885  23.2626 0007836 345.1606 133.5711 15.46767372369882
PRATHAM                 
1 41783U 16059A   23093.51902034  .00001242  00000+0  24502-3 0  9999
2 41783  97.8778 127.9304 0032477 339.3004  20.6881 14.63811285348056
ALSAT 1N                
1 41789U 16059G   23093.37619426  .00001686  00000+0  31995-3 0  9995
2 41789  97.8788 133.0277 0026911 320.8784  39.0475 14.65242457348319
LISHUI 1-01             
1 41845U 16066E   23093.45079800  .00665460  00000+0  11569-1 0  9990
2 41845  98.7279 262.5852 0074239 206.7270 239.0317 15.45607501340179
CARTOSAT-2D             
1 41948U 17008A   23093.36089258  .00009348  00000+0  44474-3 0  9999
2 41948  97.4231 153.9495 0005000  46.8979 313.2684 15.19376247339814
NAYIF-1 (EO-88)         
1 42017U 17008BX  23093.15794126  .00118599  00000+0  15766-2 0  9991
2 42017  97.2217 162.3978 0003162 247.9476 112.1444 15.57784731341712
ZHUHAI-1 02 (CAS-4B)    
1 42759U 17034B   23093.46616844  .00015458  00000+0  79959-3 0  9992
2 42759  43.0171 170.6370 0011305 333.5262 140.4276 15.15992333320294
ZHUHAI-1 01 (CAS-4A)    
1 42761U 17034D   23093.47671101  .00013096  00000+0  67846-3 0  9991
2 42761  43.0163 169.1353 0012018 335.8133  98.0948 15.16039283320309
UCLSAT                  
1 42765U 17036A   23093.06588551  .00045746  00000+0  10097-2 0  9990
2 42765  97.1544 132.8949 0006066  20.0523 340.0962 15.43727107322268
NIUSAT                  
1 42766U 17036B   23093.08631721  .00027370  00000+0  79686-3 0  9994
2 42766  97.1674 126.2657 0010990  25.0322 335.1453 15.35319379321076
CARTOSAT-2E             
1 42767U 17036C   23093.46551957  .00009176  00000+0  43761-3 0  9998
2 42767  97.4126 154.4987 0007468  89.9861  25.0483 15.19283825320394
AALTO-1                 
1 42775U 17036L   23093.32325378  .00022979  00000+0  72857-3 0  9992
2 42775  97.1624 125.6405 0010821  26.2654 333.9136 15.32649990321042
URSA MAIOR              
1 42776U 17036M   23093.53343120  .00022475  00000+0  68125-3 0  9995
2 42776  97.1633 126.9854 0010048  23.2037 336.9658 15.34095466321135
COMPASS 2               
1 42777U 17036N   23093.41988716  .00148888  00000+0  19055-2 0  9993
2 42777  97.1572 138.0933 0002840 331.3488  28.7612 15.58696847321787
MAX VALIER SAT          
1 42778U 17036P   23093.56366285  .00022680  00000+0  66191-3 0  9996
2 42778  97.1675 130.3092 0008590  26.2592 333.9086 15.35303495321265
PEGASUS                 
1 42784U 17036V   23093.56935164  .00038364  00000+0  92182-3 0  9996
2 42784  97.1589 132.1773 0007138  21.4064 338.7481 15.41209658321467
NUDTSAT                 
1 42787U 17036Y   23093.55662402  .00191153  00000+0  19726-2 0  9998
2 42787  97.1546 140.2915 0001791 331.8538  28.2600 15.64173482321817
SUCHAI                  
1 42788U 17036Z   23093.06638709  .00056360  00000+0  11059-2 0  9999
2 42788  97.1569 134.5922 0005122  16.8079 343.3341 15.47141294321640
SKCUBE                  
1 42789U 17036AA  23093.06709121  .00046093  00000+0  10051-2 0  9990
2 42789  97.1580 133.4625 0005861  18.6228 341.5234 15.44087008321491
VZLUSAT-1               
1 42790U 17036AB  23093.57311187  .00154116  00000+0  16840-2 0  9997
2 42790  97.1527 140.1079 0001759 325.3768  34.7376 15.62826545321957
ROBUSTA 1B              
1 42792U 17036AD  23093.09988369  .00053230  00000+0  10775-2 0  9994
2 42792  97.1566 134.4563 0005045  17.5248 342.6175 15.46249228321576
D-SAT                   
1 42794U 17036AF  23093.45692411  .00004451  00000+0  36015-3 0  9993
2 42794  97.4627  89.0450 0117872 192.1173 167.7208 14.94901940314762
NORSAT 2                
1 42828U 17042D   23093.51283092  .00006316  00000+0  58114-3 0  9992
2 42828  97.4012 298.4758 0014855 110.0660 250.2162 14.94994351311461
TECHNOSAT               
1 42829U 17042E   23093.48247526  .00003344  00000+0  32450-3 0  9994
2 42829  97.3946 295.3879 0014865 114.4078 245.8695 14.93186800311348
2017-042F               
1 42830U 17042F   23093.46782832  .00014973  00000+0  11954-2 0  9993
2 42830  97.4097 302.1297 0013786  92.8487 267.4316 15.00288482311666
FLYING LAPTOP           
1 42831U 17042G   23093.42581611  .00002440  00000+0  24044-3 0  9993
2 42831  97.3969 295.6683 0014860 114.6298 245.6460 14.92806010311331
CORVUS BC2              
1 42846U 17042X   23093.54229784  .00002912  00000+0  27591-3 0  9996
2 42846  97.3941 299.0841 0010536 101.9951 258.2451 14.94269987311576
CORVUS BC1              
1 42847U 17042Y   23093.53807173  .00003204  00000+0  30237-3 0  9996
2 42847  97.3940 299.4281 0010345 100.8908 259.3477 14.94368362311584
CZ-4C R/B               
1 43012U 17072C   23093.59779959  .00000864  00000+0  18470-3 0  9994
2 43012  98.6562 146.6121 0127370 149.2351 211.6392 14.56641313286097
RADFXSAT (FOX-1B)       
1 43017U 17073E   23093.62371223  .00010005  00000+0  71296-3 0  9999
2 43017  97.6412 340.9195 0235771 315.6236  42.6293 14.85024360290110
EAGLESAT 1              
1 43018U 17073F   23093.49088576  .00016856  00000+0  11085-2 0  9990
2 43018  97.6464 344.0585 0220139 305.5069  52.5789 14.89856101290165
INS-1C                  
1 43116U 18004F   23093.46279749  .00048766  00000+0  10588-2 0  9997
2 43116  97.3416 173.9258 0005148  45.3362 314.8305 15.44206661290812
FLOCK 3P'-3             
1 43119U 18004J   23093.45095924  .00097562  00000+0  18477-2 0  9993
2 43119  97.3299 170.7560 0003474  66.1489 294.0126 15.48004011290624
FLOCK 3P'-2             
1 43120U 18004K   23093.19486800  .00088570  00000+0  19858-2 0  9996
2 43120  97.3391 169.5990 0004995  72.3622 287.8171 15.43075363290510
FLOCK 3P'-4             
1 43122U 18004M   23093.44026284  .00074624  00000+0  17405-2 0  9993
2 43122  97.3418 170.0538 0005992  78.1591 282.0328 15.41944621290559
MICROMAS-2A             
1 43131U 18004W   23093.20256471  .02028195  36210-2  23974-2 0  9997
2 43131  97.3173 183.3654 0010902 280.6462  79.3594 16.09376890291440
PICSAT                  
1 43132U 18004X   23093.17575798  .00069365  00000+0  13216-2 0  9995
2 43132  97.3366 174.7646 0004530  45.2128 314.9490 15.47940594290906
CNUSAIL-1               
1 43133U 18004Y   23093.16112656  .00035340  00000+0  92582-3 0  9995
2 43133  97.3333 170.4729 0007027  60.1320 300.0623 15.38590144290658
2018-004Z               
1 43134U 18004Z   23093.22061828  .00053357  00000+0  11588-2 0  9991
2 43134  97.3360 173.1611 0005233  56.3109 303.8637 15.44175692290816
FOX-1D (AO-92)          
1 43137U 18004AC  23093.18992154  .00041082  00000+0  10030-2 0  9997
2 43137  97.3338 171.8472 0006200  61.3327 298.8542 15.40718989290745
STEP CUBE LAB           
1 43138U 18004AD  23093.30457803  .00224385  00000+0  19877-2 0  9996
2 43138  97.3377 180.3287 0002208 295.4154  64.6878 15.67902778291258
XIAOXIANG-2             
1 43155U 18008A   23093.49616406  .00026514  00000+0  11373-2 0  9992
2 43155  97.3096 147.9251 0013799 205.5722 266.2882 15.22617454287272
ZHOU ENLAI              
1 43156U 18008B   23093.46385231  .00028843  00000+0  12281-2 0  9995
2 43156  97.3133 147.9125 0011351 205.2287 280.1732 15.22880522287198
QUANTUTONG 1            
1 43158U 18008D   23093.59908175  .00022902  00000+0  10467-2 0  9993
2 43158  97.3126 145.2926 0011048 207.6461 312.4656 15.20511974287076
S-NET D                 
1 43186U 18014G   23093.28000450  .00006341  00000+0  51561-3 0  9996
2 43186  97.6411 358.4396 0013210  57.2886 302.9609 14.99845461282320
S-NET B                 
1 43187U 18014H   23093.28070748  .00006384  00000+0  51912-3 0  9991
2 43187  97.6410 358.3762 0013271  56.9498 303.2998 14.99841388282327
S-NET A                 
1 43188U 18014J   23093.28095024  .00006461  00000+0  52527-3 0  9995
2 43188  97.6416 358.4586 0013299  56.7741 303.4755 14.99843426282326
S-NET C                 
1 43189U 18014K   23093.54938583  .00005886  00000+0  47901-3 0  9991
2 43189  97.6414 358.6245 0013544  55.0179 305.2314 14.99839417280918
SHAONIAN XING           
1 43199U 18015H   23093.54685690  .00119698  00000+0  16063-2 0  9992
2 43199  97.5394 247.8756 0005965  88.2404 336.7287 15.57513391288133
LUOJIA-1 01             
1 43485U 18048B   23093.48316589  .00003642  00000+0  50521-3 0  9996
2 43485  97.9068 174.8913 0010409 349.3577  10.7418 14.78512374260708
